NORAD_CAT_ID,OBJECT_NAME,OBJECT_TYPE,EPOCH,MEAN_MOTION,ECCENTRICITY,INCLINATION,RA_OF_ASC_NODE,ARG_OF_PERICENTER,MEAN_ANOMALY,BSTAR,MEAN_MOTION_DOT,MEAN_MOTION_DDOT,TLE_LINE0,TLE_LINE1,TLE_LINE2,SEMIMAJOR_AXIS,PERIOD,APOGEE,PERIGEE,DECAYED
55319.0,STARLINK-5196,PAYLOAD,2024-04-20 14:19:24,14.98328821,0.0002913,69.9981,299.3391,270.9971,89.0854,-1.3468e-05,-2.54e-06,0.0,0 STARLINK-5196,1 55319U 23010BC  24111.59680677 -.00000254  00000-0 -13468-4 0  9995,2 55319  69.9981 299.3391 0002913 270.9971  89.0854 14.98328821 71573,6950.197,96.107,574.086,570.037,0.0
55319.0,STARLINK-5196,PAYLOAD,2024-04-20 20:43:56,14.9833036,0.0002724,69.9988,298.6673,262.429,97.656,-1.2323e-05,-2.4e-06,0.0,0 STARLINK-5196,1 55319U 23010BC  24111.86384543 -.00000240  00000-0 -12323-4 0  9992,2 55319  69.9988 298.6673 0002724 262.4290  97.6560 14.98330360 71610,6950.192,96.107,573.95,570.164,0.0
55319.0,STARLINK-5196,PAYLOAD,2024-04-20 22:20:04,14.98331059,0.0002827,69.9986,298.4981,269.4951,90.5884,4.4641e-05,4.4e-06,0.0,0 STARLINK-5196,1 55319U 23010BC  24111.93060366  .00000440  00000-0  44641-4 0  9992,2 55319  69.9986 298.4981 0002827 269.4951  90.5884 14.98331059 70439,6950.19,96.107,574.019,570.09,0.0
55319.0,STARLINK-5196,PAYLOAD,2024-04-21 14:21:24,14.98328359,0.0002607,69.9988,296.8147,254.9674,105.1197,2.8115e-05,2.42e-06,0.0,0 STARLINK-5196,1 55319U 23010BC  24112.59820455  .00000242  00000-0  28115-4 0  9996,2 55319  69.9988 296.8147 0002607 254.9674 105.1197 14.98328359 71726,6950.198,96.107,573.875,570.251,0.0
55319.0,STARLINK-5196,PAYLOAD,2024-04-21 22:22:05,14.98329338,0.0002629,69.9989,295.9733,254.9511,105.1357,3.9739e-05,3.81e-06,0.0,0 STARLINK-5196,1 55319U 23010BC  24112.93200388  .00000381  00000-0  39739-4 0  9999,2 55319  69.9989 295.9733 0002629 254.9511 105.1357 14.98329338 71773,6950.195,96.107,573.887,570.233,0.0
55319.0,STARLINK-5196,PAYLOAD,2024-04-22 11:11:09,14.9832634,0.0002686,69.9994,294.6275,252.1906,107.896,1.049e-06,-8e-07,0.0,0 STARLINK-5196,1 55319U 23010BC  24113.46608668 -.00000080  00000-0  10490-5 0  9992,2 55319  69.9994 294.6275 0002686 252.1906 107.8960 14.98326340 71855,6950.204,96.107,573.936,570.202,0.0
55319.0,STARLINK-5196,PAYLOAD,2024-04-22 20:47:58,14.98322838,0.0002589,69.9996,293.6164,260.1287,99.958,3.1317e-05,2.81e-06,0.0,0 STARLINK-5196,1 55319U 23010BC  24113.86664987  .00000281  00000-0  31317-4 0  9994,2 55319  69.9996 293.6164 0002589 260.1287  99.9580 14.98322838 70728,6950.215,96.107,573.879,570.281,0.0
55319.0,STARLINK-5196,PAYLOAD,2024-04-22 22:24:05,14.98353774,0.0002686,69.9995,293.4481,260.4119,99.6737,-0.00049572,-6.006e-05,0.0,0 STARLINK-5196,1 55319U 23010BC  24113.93340185 -.00006006  00000-0 -49572-3 0  9997,2 55319  69.9995 293.4481 0002686 260.4119  99.6737 14.98353774 71929,6950.119,96.105,573.851,570.118,0.0
55319.0,STARLINK-5196,PAYLOAD,2024-04-23 12:49:18,14.98329837,0.0002621,69.9995,291.9331,263.3985,96.6876,6.3625e-05,6.66e-06,0.0,0 STARLINK-5196,1 55319U 23010BC  24114.53424487  .00000666  00000-0  63625-4 0  9992,2 55319  69.9995 291.9331 0002621 263.3985  96.6876 14.98329837 70820,6950.193,96.107,573.88,570.237,0.0
55319.0,STARLINK-5196,PAYLOAD,2024-04-23 14:25:26,14.9833032,0.0002617,69.9995,291.7646,262.8061,97.28,6.8321e-05,7.22e-06,0.0,0 STARLINK-5196,1 55319U 23010BC  24114.60100441  .00000722  00000-0  68321-4 0  9992,2 55319  69.9995 291.7646 0002617 262.8061  97.2800 14.98330320 72028,6950.192,96.107,573.876,570.238,0.0
55319.0,STARLINK-5196,PAYLOAD,2024-04-23 20:49:58,14.98331851,0.0002597,69.9997,291.0915,262.0974,97.9891,8.3393e-05,9.02e-06,0.0,0 STARLINK-5196,1 55319U 23010BC  24114.86804301  .00000902  00000-0  83393-4 0  9992,2 55319  69.9997 291.0915 0002597 262.0974  97.9891 14.98331851 72065,6950.187,96.107,573.857,570.247,0.0
55319.0,STARLINK-5196,PAYLOAD,2024-04-23 22:26:06,14.98337771,0.0002556,69.9997,290.9228,257.7452,102.342,2.9939e-05,2.64e-06,0.0,0 STARLINK-5196,1 55319U 23010BC  24114.93479994  .00000264  00000-0  29939-4 0  9993,2 55319  69.9997 290.9228 0002556 257.7452 102.3420 14.98337771 70881,6950.169,96.107,573.81,570.257,0.0
55319.0,STARLINK-5196,PAYLOAD,2024-04-24 12:51:19,14.98326035,0.0002265,70.0007,289.4085,243.7849,116.3077,5.6155e-05,5.77e-06,0.0,0 STARLINK-5196,1 55319U 23010BC  24115.53564746  .00000577  00000-0  56155-4 0  9997,2 55319  70.0007 289.4085 0002265 243.7849 116.3077 14.98326035 70976,6950.205,96.107,573.644,570.496,0.0
55319.0,STARLINK-5196,PAYLOAD,2024-04-24 14:27:28,14.98325367,0.0002314,70.0006,289.2403,243.4357,116.6565,4.334e-05,4.24e-06,0.0,0 STARLINK-5196,1 55319U 23010BC  24115.60240828  .00000424  00000-0  43340-4 0  9990,2 55319  70.0006 289.2403 0002314 243.4357 116.6565 14.98325367 72179,6950.207,96.107,573.68,570.464,0.0
55319.0,STARLINK-5196,PAYLOAD,2024-04-24 20:52:00,14.98323898,0.0002299,70.0001,288.5657,246.6961,113.3956,2.0973e-05,1.57e-06,0.0,0 STARLINK-5196,1 55319U 23010BC  24115.86945101  .00000157  00000-0  20973-4 0  9994,2 55319  70.0001 288.5657 0002299 246.6961 113.3956 14.98323898 72215,6950.212,96.107,573.675,570.479,0.0
55319.0,STARLINK-5196,PAYLOAD,2024-04-25 12:53:20,14.9833046,0.0002509,70.0006,286.8835,247.1405,112.9489,-1.2504e-05,-2.42e-06,0.0,0 STARLINK-5196,1 55319U 23010BC  24116.53704820 -.00000242  00000-0 -12504-4 0  9998,2 55319  70.0006 286.8835 0002509 247.1405 112.9489 14.98330460 71120,6950.191,96.107,573.8,570.313,0.0
55319.0,STARLINK-5196,PAYLOAD,2024-04-25 14:29:29,14.9833029,0.0002516,70.0006,286.7152,246.9868,113.1026,-1.4537e-05,-2.66e-06,0.0,0 STARLINK-5196,1 55319U 23010BC  24116.60380831 -.00000266  00000-0 -14537-4 0  9992,2 55319  70.0006 286.7152 0002516 246.9868 113.1026 14.98330290 72323,6950.192,96.107,573.806,570.308,0.0
55319.0,STARLINK-5196,PAYLOAD,2024-04-25 20:54:01,14.98330016,0.0002509,70.0005,286.0416,253.5886,106.4997,1.6133e-05,1e-06,0.0,0 STARLINK-5196,1 55319U 23010BC  24116.87084838  .00000100  00000-0  16133-4 0  9998,2 55319  70.0005 286.0416 0002509 253.5886 106.4997 14.98330016 72366,6950.193,96.107,573.802,570.314,0.0
55319.0,STARLINK-5196,PAYLOAD,2024-04-26 12:55:21,14.98328018,0.0002659,70.0003,284.3591,264.8427,95.2428,4.9715e-05,5e-06,0.0,0 STARLINK-5196,1 55319U 23010BC  24117.53844884  .00000500  00000-0  49715-4 0  9993,2 55319  70.0003 284.3591 0002659 264.8427  95.2428 14.98328018 71273,6950.199,96.107,573.912,570.216,0.0
55319.0,STARLINK-5196,PAYLOAD,2024-04-26 14:31:30,14.98328003,0.0002664,70.0003,284.1908,264.8807,95.2048,4.8213e-05,4.82e-06,0.0,0 STARLINK-5196,1 55319U 23010BC  24117.60520897  .00000482  00000-0  48213-4 0  9997,2 55319  70.0003 284.1908 0002664 264.8807  95.2048 14.98328003 72476,6950.199,96.107,573.916,570.213,0.0
55319.0,STARLINK-5196,PAYLOAD,2024-04-26 19:19:53,14.98332041,0.0002658,70.0003,283.6864,263.0808,97.0048,8.6992e-05,9.45e-06,0.0,0 STARLINK-5196,1 55319U 23010BC  24117.80548538  .00000945  00000-0  86992-4 0  9991,2 55319  70.0003 283.6864 0002658 263.0808  97.0048 14.98332041 72507,6950.187,96.107,573.899,570.204,0.0
55319.0,STARLINK-5196,PAYLOAD,2024-04-27 12:57:22,14.9833389,0.0003046,69.999,281.8312,270.9369,89.1441,4.736e-05,4.72e-06,0.0,0 STARLINK-5196,1 55319U 23010BC  24118.53984368  .00000472  00000-0  47360-4 0  9998,2 55319  69.9990 281.8312 0003046 270.9369  89.1441 14.98333890 71420,6950.181,96.107,574.163,569.929,0.0
55319.0,STARLINK-5196,PAYLOAD,2024-04-27 14:33:30,14.98332856,0.0003055,69.9989,281.6628,271.2958,88.7851,5.877e-05,6.08e-06,0.0,0 STARLINK-5196,1 55319U 23010BC  24118.60660379  .00000608  00000-0  58770-4 0  9997,2 55319  69.9989 281.6628 0003055 271.2958  88.7851 14.98332856 72628,6950.184,96.107,574.172,569.926,0.0
55319.0,STARLINK-5196,PAYLOAD,2024-04-27 20:58:02,14.98337027,0.0003121,69.9988,280.9904,271.2329,88.8473,8.1581e-05,8.81e-06,0.0,0 STARLINK-5196,1 55319U 23010BC  24118.87363971  .00000881  00000-0  81581-4 0  9993,2 55319  69.9988 280.9904 0003121 271.2329  88.8473 14.98337027 72662,6950.171,96.107,574.205,569.867,0.0
55319.0,STARLINK-5196,PAYLOAD,2024-04-28 12:59:24,14.98321954,0.0002844,69.9996,279.3072,272.3906,87.6928,-7.7423e-05,-1.016e-05,0.0,0 STARLINK-5196,1 55319U 23010BC  24119.54125402 -.00001016  00000-0 -77423-4 0  9996,2 55319  69.9996 279.3072 0002844 272.3906  87.6928 14.98321954 71576,6950.218,96.108,574.059,570.106,0.0
55319.0,STARLINK-5196,PAYLOAD,2024-04-28 14:35:32,14.98321958,0.0002917,69.9996,279.1389,273.4226,86.66,-7.621e-05,-1.002e-05,0.0,0 STARLINK-5196,1 55319U 23010BC  24119.60801423 -.00001002  00000-0 -76210-4 0  9995,2 55319  69.9996 279.1389 0002917 273.4226  86.6600 14.98321958 72776,6950.218,96.108,574.11,570.055,0.0
55319.0,STARLINK-5196,PAYLOAD,2024-04-28 21:00:04,14.98324444,0.0002773,69.9995,278.4655,270.9285,89.1557,-5.1179e-05,-7.03e-06,0.0,0 STARLINK-5196,1 55319U 23010BC  24119.87505285 -.00000703  00000-0 -51179-4 0  9995,2 55319  69.9995 278.4655 0002773 270.9285  89.1557 14.98324444 72817,6950.21,96.107,574.002,570.148,0.0
55319.0,STARLINK-5196,PAYLOAD,2024-04-29 13:01:24,14.98334931,0.0002929,69.9992,276.782,274.3731,85.7093,1.9747e-05,1.43e-06,0.0,0 STARLINK-5196,1 55319U 23010BC  24120.54264396  .00000143  00000-0  19747-4 0  9997,2 55319  69.9992 276.7820 0002929 274.3731  85.7093 14.98334931 71724,6950.178,96.107,574.078,570.007,0.0
55319.0,STARLINK-5196,PAYLOAD,2024-04-29 14:37:32,14.98333931,0.0003007,69.9989,276.6137,274.2737,85.8078,2.2156e-05,1.71e-06,0.0,0 STARLINK-5196,1 55319U 23010BC  24120.60940428  .00000171  00000-0  22156-4 0  9990,2 55319  69.9989 276.6137 0003007 274.2737  85.8078 14.98333931 72929,6950.181,96.107,574.136,569.956,0.0
55319.0,STARLINK-5196,PAYLOAD,2024-04-29 19:25:56,14.98335943,0.0003014,69.999,276.1091,272.3579,87.7235,2.1002e-05,1.58e-06,0.0,0 STARLINK-5196,1 55319U 23010BC  24120.80968235  .00000158  00000-0  21002-4 0  9992,2 55319  69.9990 276.1091 0003014 272.3579  87.7235 14.98335943 72950,6950.175,96.107,574.134,569.945,0.0
